ORBVIEW 2 (SEASTAR)     
1 24883U 97037A   25326.35191759  .00000369  00000+0  14473-3 0  9998
2 24883  98.8452 122.9145 0002653  38.7161 321.4213 14.35395147493070
SL-16 R/B               
1 25400U 98043G   25326.45060248  .00000096  00000+0  59031-4 0  9998
2 25400  98.8092 274.1585 0009327 331.3750  28.6917 14.26018353423706
SL-16 R/B               
1 25407U 98045B   25326.35149639  .00000121  00000+0  85232-4 0  9999
2 25407  71.0124  47.3016 0008178 205.3288 154.7436 14.16169106411908
ISS (ZARYA)             
1 25544U 98067A   25326.28671477  .00015903  00000+0  29634-3 0  9994
2 25544  51.6321 243.7129 0003928 154.7163 205.4018 15.48986583539685
CZ-4B R/B               
1 25732U 99025C   25326.14977625  .00000103  00000+0  70926-4 0  9994
2 25732  98.6798   7.8874 0036099 294.8785 131.8097 14.18236298372928
OKEAN-O                 
1 25860U 99039A   25326.17080117  .00000869  00000+0  12149-3 0  9996
2 25860  97.9631  22.0480 0001148  68.2179 291.9155 14.80111113418489
SL-16 R/B               
1 25861U 99039B   25326.11816060  .00000660  00000+0  90981-4 0  9995
2 25861  98.0154  20.2653 0013605 244.2406 115.7403 14.81542979420935
DELTA 2 R/B             
1 25876U 99041E   25326.31908272  .00001131  00000+0  22174-3 0  9995
2 25876  51.7632   9.9580 0504888  31.5917 331.4303 14.11327736347864
HELIOS 1B               
1 25977U 99064A   25326.21561693  .00002087  00000+0  23864-3 0  9991
2 25977  98.1754 220.2742 0002489  70.8346 289.3138 14.87161655669285
TERRA                   
1 25994U 99068A   25326.46018616  .00000604  00000+0  13243-3 0  9996
2 25994  97.9776  18.8854 0002975 139.4509 277.9948 14.60918980379421
SL-16 R/B               
1 26070U 00006B   25326.40973664 -.00000028  00000+0  10155-4 0  9994
2 26070  71.0018 323.4048 0017360 337.1754  22.8595 14.15801195333370
TITAN 4B R/B            
1 26474U 00047B   25326.45601648  .00003972  00000+0  25724-3 0  9999
2 26474  67.9901 341.8136 0040725 168.6185 191.5895 15.08572385376734
